address,city,state,zip
7842 Red Cloud Place,Boston,MA,02114
562 American Terrace,El Paso,TX,88569
0003 Mccormick Circle,San Francisco,CA,94105
04724 Hermina Road,Philadelphia,PA,19125
36 Sundown Circle,Tucson,AZ,85732
8317 Weeping Birch Place,Birmingham,AL,35263
82 Summerview Court,Savannah,GA,31422
79828 Harper Lane,Denver,CO,80235
4979 Eagle Crest Trail,Boise,ID,83705
9 Northland Hill,Philadelphia,PA,19172
53 Rigney Pass,Hartford,CT,06140
126 Lien Court,Washington,DC,20260
55753 Anzinger Pass,Lancaster,CA,93584
4164 Nelson Trail,Brockton,MA,02405
5 Monterey Circle,Salem,OR,97312
6 Village Green Court,San Jose,CA,95128
29541 Melby Trail,Melbourne,FL,32919
58 Walton Avenue,Gainesville,FL,32610
076 Onsgard Plaza,Charlotte,NC,28256
37709 Westend Plaza,Irving,TX,75037
4 Gale Hill,Oklahoma City,OK,73179
3 Riverside Circle,Baltimore,MD,21275
2 Grayhawk Circle,Anaheim,CA,92825
241 Truax Street,Valley Forge,PA,19495
89503 Monica Alley,New York City,NY,10155
41352 Browning Trail,Washington,DC,20508
84586 Dahle Trail,Omaha,NE,68144
99 Birchwood Court,Philadelphia,PA,19104
461 Moland Park,Sacramento,CA,94237
5059 Scott Street,Honolulu,HI,96810
735 Barnett Place,Northridge,CA,91328
57 Sycamore Crossing,Charleston,WV,25389
3781 Coleman Drive,Springfield,IL,62776
5910 Garrison Street,Colorado Springs,CO,80920
9 Becker Avenue,Philadelphia,PA,19093
11797 Melrose Point,Odessa,TX,79764
662 Hauk Way,Atlanta,GA,30311
73968 Lighthouse Bay Alley,Sacramento,CA,95833
849 Stuart Lane,Newark,NJ,07104
54 Carpenter Plaza,Chicago,IL,60619
8371 Ryan Plaza,Pittsburgh,PA,15286
0432 Eliot Court,Bakersfield,CA,93381
410 Carioca Plaza,Albuquerque,NM,87110
9805 Center Center,Inglewood,CA,90305
48 Trailsway Parkway,San Francisco,CA,94137
2 Weeping Birch Junction,Raleigh,NC,27658
7623 Manufacturers Terrace,San Antonio,TX,78260
18092 Kropf Park,Cincinnati,OH,45233
927 Merchant Way,Ashburn,VA,22093
280 Bay Street,Roanoke,VA,24009
80 Summit Junction,Boise,ID,83711
70535 Memorial Trail,Inglewood,CA,90305
6110 Mcbride Point,Vancouver,WA,98682
62250 Lake View Court,Farmington,MI,48335
59966 Schlimgen Alley,Dayton,OH,45403
19167 Sunfield Circle,Los Angeles,CA,90076
80 Fulton Alley,Des Moines,IA,50305
4703 Lindbergh Park,Colorado Springs,CO,80951
09 Lakewood Center,Des Moines,IA,50330
1409 Leroy Trail,Shawnee Mission,KS,66205
8 Redwing Parkway,Indianapolis,IN,46202
94713 Hayes Avenue,Springfield,IL,62756
12453 Scofield Pass,Denver,CO,80291
04819 Riverside Alley,Metairie,LA,70033
5 Oneill Pass,Philadelphia,PA,19178
86593 Forest Dale Alley,New York City,NY,10004
4649 Westend Avenue,Huntsville,AL,35895
645 Surrey Point,London,KY,40745
37 Comanche Point,Garland,TX,75049
0104 Knutson Point,Bradenton,FL,34205
083 Ridge Oak Parkway,Amarillo,TX,79116
8484 Muir Crossing,Pittsburgh,PA,15255
908 Elmside Circle,Salt Lake City,UT,84170
145 Moland Junction,Washington,DC,20046
9370 2nd Lane,Washington,DC,20215
921 Rigney Alley,Baltimore,MD,21281
575 Drewry Hill,Alexandria,VA,22309
21056 Atwood Point,Erie,PA,16505
90 Graedel Hill,Kansas City,MO,64101
148 Knutson Alley,Pittsburgh,PA,15220
29821 Green Plaza,San Antonio,TX,78296
88 Kipling Lane,Anniston,AL,36205
3 Eastwood Junction,Phoenix,AZ,85072
2718 Northview Junction,Columbia,SC,29220
0 Parkside Court,Birmingham,AL,35220
268 Sheridan Parkway,New Orleans,LA,70154
61 Sycamore Court,Topeka,KS,66629
857 Express Lane,Fort Myers,FL,33906
89697 Straubel Plaza,San Bernardino,CA,92405
6816 Golf View Crossing,Arlington,VA,22212
879 Lighthouse Bay Street,Albany,NY,12242
9 Autumn Leaf Way,Toledo,OH,43615
515 Sage Terrace,Springfield,IL,62723
2831 Blaine Place,Dallas,TX,75216
7795 Nancy Plaza,Pensacola,FL,32505
490 Debra Center,Washington,DC,20210
920 Corben Terrace,Huntington,WV,25726
7 Novick Parkway,Bradenton,FL,34205
45184 Hovde Circle,Saint Louis,MO,63131
2 Fallview Road,Fullerton,CA,92835
753 Sugar Hill,Philadelphia,PA,19196
76496 Hallows Park,Washington,DC,20238
888 Columbus Drive,Saint Cloud,MN,56398
5 Rieder Way,Nashville,TN,37210
85 Boyd Avenue,Fredericksburg,VA,22405
223 Huxley Place,Jamaica,NY,11480
7378 Sunnyside Terrace,Shreveport,LA,71137
6635 Tomscot Alley,Los Angeles,CA,90045
12428 Vera Lane,Arlington,TX,76096
25 New Castle Trail,Dallas,TX,75236
971 Elgar Terrace,Wichita,KS,67260
99979 Lukken Way,Baltimore,MD,21265
182 Union Crossing,Tucson,AZ,85732
03149 Lukken Center,Port Saint Lucie,FL,34985
39796 Springs Alley,Fort Wayne,IN,46814
9429 Northland Road,Miami,FL,33164
18 Green Court,Fresno,CA,93750
3739 Summerview Road,Hampton,VA,23668
35013 Warbler Park,Madison,WI,53710
55375 Pawling Road,Alexandria,VA,22333
489 Eastwood Alley,Birmingham,AL,35210
8 Stone Corner Lane,Fort Lauderdale,FL,33325
4 Bay Lane,Cedar Rapids,IA,52410
533 Fallview Alley,Marietta,GA,30066
1819 Loomis Road,Long Beach,CA,90805
562 Superior Parkway,Port Charlotte,FL,33954
53258 Schmedeman Terrace,Amarillo,TX,79171
20768 Mcguire Point,Katy,TX,77493
75800 Marcy Street,San Antonio,TX,78255
82989 Village Parkway,Charleston,WV,25389
146 Saint Paul Lane,Newark,DE,19714
428 Hoard Trail,West Palm Beach,FL,33416
20132 Grasskamp Way,Los Angeles,CA,90101
18 Main Drive,Muskegon,MI,49444
10961 Waubesa Lane,Oklahoma City,OK,73179
25 Marcy Hill,Paterson,NJ,07505
388 Swallow Way,Columbia,MO,65211
992 Golf View Alley,Phoenix,AZ,85040
06 Dahle Alley,Albany,NY,12247
8229 Mallory Parkway,New York City,NY,10099
76275 Golden Leaf Place,Tyler,TX,75705
79638 Fulton Crossing,Irving,TX,75037
7 Springview Parkway,Tucson,AZ,85748
06711 Fordem Terrace,Atlanta,GA,30351
65362 Spenser Point,Reno,NV,89550
82528 Sommers Center,New York City,NY,10120
8 Dapin Circle,Corpus Christi,TX,78475
4702 Dennis Court,Philadelphia,PA,19196
4110 Golf Plaza,Montgomery,AL,36104
68928 Dapin Plaza,Des Moines,IA,50310
353 Maywood Plaza,Evansville,IN,47712
6 Park Meadow Plaza,Des Moines,IA,50310
25 Erie Center,Las Vegas,NV,89110
4863 Glendale Place,Waterloo,IA,50706
84 Rockefeller Drive,Florence,SC,29505
4 Blackbird Crossing,Houston,TX,77095
438 Nelson Crossing,Colorado Springs,CO,80951
02633 Mesta Drive,Charleston,WV,25321
63 Lakewood Gardens Plaza,Brooklyn,NY,11241
6 Milwaukee Pass,New York City,NY,10090
114 Kedzie Alley,Glendale,CA,91205
198 Sachtjen Park,Boise,ID,83716
49 Gerald Avenue,Denver,CO,80223
73989 Shopko Plaza,Conroe,TX,77305
23 Hayes Alley,Shawnee Mission,KS,66220
705 Tomscot Lane,Oakland,CA,94622
061 Dwight Avenue,Huntington,WV,25721
82649 Marquette Circle,Tampa,FL,33620
6 Eastlawn Crossing,El Paso,TX,79916
5234 Namekagon Crossing,South Bend,IN,46634
52837 Gulseth Plaza,Portsmouth,NH,03804
509 Summer Ridge Lane,Charlotte,NC,28210
29886 Marquette Center,Fort Myers,FL,33906
48 Ilene Avenue,White Plains,NY,10633
3799 Mcbride Drive,Denver,CO,80204
833 Parkside Plaza,Fort Worth,TX,76110
895 Sloan Street,Burbank,CA,91520
957 Westend Junction,Stockton,CA,95210
412 Schiller Avenue,Orlando,FL,32859
3411 Brown Junction,Baton Rouge,LA,70883
120 Claremont Junction,Jackson,MS,39236
75798 Homewood Terrace,Boise,ID,83757
39 Armistice Way,Naperville,IL,60567
88 Bluestem Pass,Madison,WI,53779
160 Reinke Place,Chicago,IL,60636
7 Barnett Circle,Washington,DC,20010
8694 Dwight Circle,Atlanta,GA,31136
35 Pierstorff Avenue,Jamaica,NY,11480
896 Erie Hill,Baltimore,MD,21229
115 Hintze Alley,Peoria,IL,61605
2 Blaine Parkway,Vancouver,WA,98664
4 Vahlen Street,Seattle,WA,98115
0 Grasskamp Plaza,Austin,TX,78764
55591 Raven Avenue,North Port,FL,34290
23391 Killdeer Trail,Greensboro,NC,27425
6257 Menomonie Terrace,Vancouver,WA,98682
04 Cardinal Drive,Lancaster,PA,17622
8602 Fair Oaks Park,Huntington Beach,CA,92648
4120 Banding Trail,Houston,TX,77025
2 Commercial Street,Atlanta,GA,30380
5 Grasskamp Pass,Chicago,IL,60657
56 Moland Plaza,Boston,MA,02114
77 Fairfield Pass,Jacksonville,FL,32259
68954 Union Pass,Charlotte,NC,28247
52201 Prairieview Junction,San Bernardino,CA,92410
29837 Birchwood Trail,Simi Valley,CA,93094
712 Kedzie Place,Washington,DC,20299
190 Burrows Plaza,Lancaster,PA,17605
542 Toban Junction,Houston,TX,77025
30474 New Castle Road,Mobile,AL,36610
6974 Riverside Place,Gulfport,MS,39505
08 Park Meadow Court,Kansas City,MO,64160
977 Hintze Road,Chicago,IL,60604
56 Algoma Drive,New Orleans,LA,70179
8628 Sundown Hill,Washington,DC,20210
17343 High Crossing Place,Escondido,CA,92030
7070 Sutteridge Crossing,Rockville,MD,20851
7 Forest Place,Ventura,CA,93005
507 Burrows Avenue,Arlington,VA,22234
3106 Esker Center,Washington,DC,20041
41382 Thackeray Crossing,Shreveport,LA,71130
78038 Messerschmidt Terrace,Washington,DC,20337
927 Fieldstone Plaza,New Bedford,MA,02745
70 Reinke Drive,Denver,CO,80279
31 Packers Hill,El Paso,TX,79905
7 Crowley Road,Washington,DC,20380
922 Merchant Alley,Milwaukee,WI,53225
6 Grasskamp Lane,Indianapolis,IN,46216
7 Carberry Parkway,Lynchburg,VA,24503
97178 Rieder Trail,Orlando,FL,32854
87 Judy Terrace,Orange,CA,92668
33 Barnett Street,Orange,CA,92867
4 Everett Park,Homestead,FL,33034
30 High Crossing Terrace,Denver,CO,80262
4 Aberg Circle,Wilmington,DE,19897
777 Heath Drive,Saint Louis,MO,63167
87294 Washington Terrace,Philadelphia,PA,19172
0473 Union Trail,Newark,DE,19725
31 Bartillon Plaza,Detroit,MI,48295
1380 Colorado Parkway,Newark,NJ,07112
88 Schurz Court,Atlanta,GA,30340
603 Holmberg Center,Brooklyn,NY,11205
557 Meadow Vale Drive,Scranton,PA,18514
10 Lindbergh Street,Brooklyn,NY,11205
2 Talisman Street,San Luis Obispo,CA,93407
5033 Spenser Court,Sarasota,FL,34276
927 Evergreen Junction,Augusta,GA,30919
37542 Brickson Park Place,Scottsdale,AZ,85271
40439 Summit Crossing,Norfolk,VA,23551
88305 Kropf Drive,Littleton,CO,80161
180 Jay Circle,Canton,OH,44705
2 Lakewood Gardens Circle,Mobile,AL,36670
01 Barby Avenue,Saint Louis,MO,63116
63 Moulton Parkway,Syracuse,NY,13251
75141 Westerfield Lane,Iowa City,IA,52245
2 Crest Line Junction,Albany,NY,12210
65788 Pankratz Trail,El Paso,TX,88553
1 Talisman Lane,Salt Lake City,UT,84152
8 Sloan Place,Austin,TX,78737
6 Nova Place,Minneapolis,MN,55470
78 Northwestern Hill,El Paso,TX,79934
868 Pond Pass,Tallahassee,FL,32304
59 Rigney Alley,Norfolk,VA,23509
64 Kings Park,Los Angeles,CA,90020
44864 Evergreen Circle,Norwalk,CT,06854
42935 Arrowood Pass,San Antonio,TX,78205
6771 Delaware Alley,Wichita,KS,67236
2173 Loftsgordon Road,Shreveport,LA,71130
63446 Ronald Regan Junction,Myrtle Beach,SC,29579
252 Scoville Pass,Detroit,MI,48242
342 Sugar Place,Bridgeport,CT,06673
04200 Russell Pass,Cincinnati,OH,45296
098 Division Street,Garland,TX,75049
54046 Derek Avenue,Akron,OH,44315
93 Merry Trail,Cleveland,OH,44185
41570 Pierstorff Crossing,Colorado Springs,CO,80920
56485 Lotheville Lane,Knoxville,TN,37995
612 Elgar Crossing,New York City,NY,10090
587 Marcy Drive,San Antonio,TX,78245
25235 Stone Corner Center,Washington,DC,20546
7560 Parkside Plaza,Ann Arbor,MI,48107
92 Westerfield Alley,Hartford,CT,06183
5 High Crossing Circle,Knoxville,TN,37931
4 Cottonwood Way,Sterling,VA,20167
25 Nobel Trail,Las Vegas,NV,89105
8409 Loeprich Plaza,Round Rock,TX,78682
5213 Darwin Drive,Fort Worth,TX,76105
619 Mallory Pass,Brooksville,FL,34605
832 Arkansas Way,Bronx,NY,10474
811 Hauk Terrace,Mobile,AL,36641
32 Delladonna Center,Decatur,GA,30033
741 Brentwood Circle,Louisville,KY,40266
9902 Ilene Alley,Corpus Christi,TX,78405
5378 Luster Alley,Des Moines,IA,50315
426 Pankratz Plaza,El Paso,TX,88546
47546 Hallows Avenue,Pueblo,CO,81010
6402 Thompson Parkway,Philadelphia,PA,19151
619 Milwaukee Pass,Charlotte,NC,28263
4769 Dottie Junction,Aurora,CO,80015
28 Esch Drive,Charleston,SC,29403
39394 Northridge Road,Provo,UT,84605
6 Roxbury Pass,Young America,MN,55551
6104 Spenser Circle,Richmond,VA,23220
52 Rockefeller Way,Appleton,WI,54915
0019 Nobel Drive,Delray Beach,FL,33448
63 Holmberg Way,Nashville,TN,37235
74 Mallard Crossing,Naples,FL,33963
450 Rutledge Point,San Bernardino,CA,92405
66504 Spenser Pass,Fresno,CA,93750
726 Westend Point,Brea,CA,92822
0 Maryland Street,Corpus Christi,TX,78475
65505 Scoville Pass,Portland,OR,97216
3853 Sachs Drive,Arlington,TX,76096
7 Blackbird Junction,Provo,UT,84605
017 Washington Plaza,Los Angeles,CA,90087
05469 Leroy Trail,Boise,ID,83716
498 Anniversary Drive,Suffolk,VA,23436
43384 North Alley,El Paso,TX,79940
1 Sutteridge Place,San Antonio,TX,78296
46884 Dryden Junction,Madison,WI,53705
5483 Kipling Junction,Kansas City,MO,64149
29 Morrow Junction,Cape Coral,FL,33915
4633 Victoria Center,Phoenix,AZ,85099
233 Parkside Way,Gulfport,MS,39505
6339 Macpherson Center,Memphis,TN,38114
234 Dexter Lane,Alexandria,VA,22313
7903 Northridge Pass,Richmond,VA,23293
42377 Pond Court,Roanoke,VA,24034
2 Ridgeview Parkway,Farmington,MI,48335
0 Kedzie Parkway,Sioux Falls,SD,57110
1 Namekagon Parkway,Pittsburgh,PA,15274
1612 Northview Crossing,Tucson,AZ,85725
14 Lillian Place,New York City,NY,10039
4600 Prairie Rose Place,Austin,TX,78721
78 Emmet Crossing,Sacramento,CA,94273
6884 Arapahoe Park,San Jose,CA,95138
3767 Union Hill,Orlando,FL,32825
9683 Judy Way,Waterbury,CT,06726
2617 Heffernan Hill,Brooklyn,NY,11215
4011 Reindahl Avenue,Tacoma,WA,98442
3332 Oneill Hill,Virginia Beach,VA,23471
80 Melby Place,Amarillo,TX,79105
0779 Doe Crossing Hill,Cleveland,OH,44118
3784 Katie Place,Hattiesburg,MS,39404
04627 Ronald Regan Crossing,Colorado Springs,CO,80940
3 Morrow Alley,Reston,VA,22096
9 Fairfield Street,Shreveport,LA,71166
2566 Milwaukee Court,Bridgeport,CT,06673
221 Walton Alley,Cleveland,OH,44177
40348 Portage Terrace,Bakersfield,CA,93305
95392 Del Mar Alley,Boise,ID,83727
107 Bobwhite Pass,San Antonio,TX,78230
13163 Ohio Circle,Greensboro,NC,27499
3613 Laurel Way,Pittsburgh,PA,15210
37773 Reindahl Circle,New York City,NY,10175
736 8th Alley,Chicago,IL,60663
74893 Lakewood Gardens Junction,Houston,TX,77271
4 Pine View Place,Orlando,FL,32868
4331 Stuart Place,Buffalo,NY,14225
66128 Ridgeway Street,Huntsville,AL,35815
91 Namekagon Pass,Santa Ana,CA,92705
320 Clarendon Terrace,Atlanta,GA,30336
99 Ramsey Way,Glendale,AZ,85305
31377 Lukken Street,Oakland,CA,94605
7 Grim Plaza,Atlanta,GA,30368
6631 Golf Center,Chesapeake,VA,23324
53200 Hintze Hill,Miami Beach,FL,33141
3 Shopko Circle,Los Angeles,CA,90071
8 Loomis Way,Memphis,TN,38109
03534 Garrison Trail,Meridian,MS,39305
5149 Vera Junction,Orlando,FL,32803
572 Hudson Street,Springfield,MA,01114
83 Stoughton Place,Lake Worth,FL,33462
11725 Boyd Street,Pueblo,CO,81010
122 Melvin Point,Greenville,SC,29615
1295 Hoffman Way,Salt Lake City,UT,84110
9457 Fisk Parkway,Tulsa,OK,74149
3348 Rigney Place,Norfolk,VA,23504
5004 American Plaza,Springfield,VA,22156
996 Northwestern Terrace,Washington,DC,20016
5 Surrey Park,Trenton,NJ,08650
10794 Warner Crossing,San Jose,CA,95108
82 Hazelcrest Terrace,Bethlehem,PA,18018
283 Blaine Circle,Mobile,AL,36641
25927 Village Green Plaza,Lexington,KY,40586
824 Raven Pass,Sterling,VA,20167
9453 Sauthoff Plaza,Honolulu,HI,96805
16431 Springs Place,Huntington,WV,25705
76 Duke Lane,Bronx,NY,10459
65217 Northridge Alley,Petaluma,CA,94975
9811 Twin Pines Circle,Des Moines,IA,50315
7926 Washington Parkway,Daytona Beach,FL,32128
5 La Follette Lane,Pittsburgh,PA,15225
69478 Bartillon Street,Dallas,TX,75246
398 Hovde Way,Los Angeles,CA,90050
18080 Harper Drive,Ventura,CA,93005
9 Warner Place,Corpus Christi,TX,78465
608 Clove Park,Oklahoma City,OK,73173
029 Karstens Circle,Pensacola,FL,32595
0 Fairview Point,Inglewood,CA,90310
010 Brentwood Avenue,Washington,DC,20414
33 Beilfuss Point,Birmingham,AL,35225
7231 Johnson Lane,Pittsburgh,PA,15255
4 Sundown Circle,Birmingham,AL,35210
9291 Lakewood Gardens Avenue,Riverside,CA,92513
780 Morrow Trail,Sacramento,CA,94273
68482 Melody Crossing,Los Angeles,CA,90035
0 Corben Plaza,Memphis,TN,38131
844 Gina Hill,Sunnyvale,CA,94089
01373 Prentice Trail,Asheville,NC,28805
85 Luster Way,Amarillo,TX,79105
99 Bunker Hill Circle,Wichita Falls,TX,76310
61 Mockingbird Crossing,Miami,FL,33153
69 Dahle Way,Chicago,IL,60646
2869 Carpenter Circle,Atlanta,GA,31119
2444 Nancy Junction,Oklahoma City,OK,73173
07632 Darwin Alley,Greensboro,NC,27425
14671 Merrick Street,Pittsburgh,PA,15266
486 Maywood Street,Longview,TX,75605
35285 Upham Point,Carol Stream,IL,60351
738 Golf Course Avenue,Tampa,FL,33694
62443 Moland Place,Harrisburg,PA,17105
720 Summerview Point,Scottsdale,AZ,85255
77558 Schmedeman Avenue,Washington,DC,20029
50024 Marcy Street,Columbus,GA,31998
3 Gale Plaza,Washington,DC,20057
7098 Pine View Way,Greensboro,NC,27415
3 Brickson Park Avenue,Roanoke,VA,24009
22375 Kingsford Parkway,Winston Salem,NC,27110
2261 Amoth Hill,Long Beach,CA,90810
87273 Goodland Street,Tampa,FL,33694
1 Gina Trail,Jacksonville,FL,32259
19 Northport Drive,Midland,TX,79710
57232 Melrose Center,Wichita Falls,TX,76305
23 Delladonna Drive,Modesto,CA,95354
23844 Jana Street,Boise,ID,83732
12775 Comanche Court,Dallas,TX,75210
18028 Kensington Parkway,Shawnee Mission,KS,66225
65134 Farragut Street,Alexandria,VA,22309
4226 Delaware Alley,Baltimore,MD,21275
1170 Schlimgen Place,Moreno Valley,CA,92555
35 Anhalt Court,Corpus Christi,TX,78415
29 Mifflin Way,Syracuse,NY,13210
92139 Rieder Court,Alexandria,VA,22333
38697 Jackson Junction,Garland,TX,75044
33090 American Hill,Seattle,WA,98109
7263 Transport Way,Fort Lauderdale,FL,33345
8844 Superior Pass,Columbus,OH,43231
2 Moland Way,Chicago,IL,60636
4 Pawling Avenue,Schenectady,NY,12305
552 Fair Oaks Place,Waco,TX,76705
7 Dawn Place,Los Angeles,CA,90101
35 Hintze Crossing,Spring Hill,FL,34611
03 Kipling Trail,Charleston,SC,29416
80878 Emmet Street,Scottsdale,AZ,85271
04 Debs Pass,Baltimore,MD,21275
04204 Southridge Point,Chesapeake,VA,23324
825 Starling Trail,San Antonio,TX,78250
1642 American Ash Court,Young America,MN,55573
8 Erie Alley,Tempe,AZ,85284
10151 Mallard Hill,Saint Louis,MO,63110
70 Monica Street,Charlotte,NC,28242
6376 Kensington Park,Amarillo,TX,79165
6 Westport Court,Daytona Beach,FL,32128
424 Michigan Way,Joliet,IL,60435
4976 Grim Street,Stockton,CA,95298
7222 Pepper Wood Alley,Detroit,MI,48295
5381 Rutledge Junction,Brooklyn,NY,11254
98051 Westend Way,Washington,DC,20337
91581 Saint Paul Circle,Manassas,VA,22111
20 Dixon Drive,Washington,DC,20508
16092 Buena Vista Street,Tampa,FL,33694
6931 Boyd Street,Charlotte,NC,28210
680 Reindahl Street,New York City,NY,10170
442 Bay Road,West Palm Beach,FL,33416
4843 East Point,Metairie,LA,70033
55218 East Lane,Shreveport,LA,71161
341 6th Hill,Bronx,NY,10469
94243 Susan Park,San Francisco,CA,94142
7 Chive Court,Jersey City,NJ,07305
711 Waxwing Plaza,Tucson,AZ,85710
5 Eastwood Place,Honolulu,HI,96835
81 Fremont Road,Hialeah,FL,33018
12062 Commercial Road,Winston Salem,NC,27150
75 Carpenter Center,Beaufort,SC,29905
266 Blackbird Circle,Boston,MA,02124
4298 Lukken Trail,Houston,TX,77015
93 Warner Lane,Pittsburgh,PA,15255
275 Mallard Drive,Seattle,WA,98185
699 Comanche Avenue,Albany,NY,12232
8 Stuart Road,Louisville,KY,40293
15119 Marquette Lane,Oklahoma City,OK,73119
340 2nd Court,Houston,TX,77250
62379 Randy Parkway,Fargo,ND,58106
6360 Crescent Oaks Road,Houston,TX,77070
99458 Dovetail Pass,Pittsburgh,PA,15255
2490 Coolidge Road,Fort Worth,TX,76129
9 Bayside Plaza,Washington,DC,20566
9133 Washington Way,Tacoma,WA,98442
8 Fisk Hill,Milwaukee,WI,53215
65 Melrose Hill,Birmingham,AL,35205
36 Dunning Road,Tampa,FL,33694
0199 Buhler Road,Austin,TX,78721
86964 6th Circle,Springfield,MO,65810
76013 Donald Way,Salem,OR,97312
128 Jana Trail,Charlotte,NC,28272
126 Russell Pass,Washington,DC,20067
829 Shelley Center,Garland,TX,75049
48 Northview Hill,Baton Rouge,LA,70894
2 Knutson Park,Philadelphia,PA,19178
32615 Washington Alley,Mesa,AZ,85215
075 Autumn Leaf Pass,Virginia Beach,VA,23459
10404 Maple Drive,Inglewood,CA,90310
88 Larry Plaza,Springfield,MO,65898
01433 Fremont Pass,Hartford,CT,06160
5 Waywood Street,El Paso,TX,88584
076 Veith Park,Tampa,FL,33605
80 Mallard Hill,Detroit,MI,48258
7639 Jenna Court,Tyler,TX,75799
50 4th Alley,Norfolk,VA,23514
31744 Ridgeway Drive,Jamaica,NY,11470
9 Jay Crossing,Aiken,SC,29805
1 Sugar Drive,Pomona,CA,91797
55554 Hanson Crossing,Whittier,CA,90610
95 Duke Alley,Albuquerque,NM,87115
172 Fair Oaks Lane,Atlanta,GA,31190
3 Warrior Pass,El Paso,TX,79977
98322 Thackeray Circle,Baltimore,MD,21216
12 Warrior Crossing,Tulsa,OK,74126
77 Monument Drive,Charleston,WV,25331
02715 Mallory Terrace,Santa Fe,NM,87505
40459 Waubesa Junction,Washington,DC,20380
8498 Corscot Court,Billings,MT,59105
75107 Golf Avenue,Fort Wayne,IN,46857
45 Evergreen Lane,Carol Stream,IL,60351
855 Michigan Circle,Pittsburgh,PA,15215
1 Grayhawk Plaza,Chicago,IL,60619
3269 Bunting Drive,Las Vegas,NV,89115
060 Shasta Terrace,El Paso,TX,79934
816 Barby Avenue,Fullerton,CA,92835
37 Cascade Circle,Miami,FL,33175
73090 Boyd Park,Greenville,SC,29615
005 Warner Plaza,Portsmouth,VA,23705
8 Corry Junction,Oklahoma City,OK,73157
3036 Westport Way,Newark,NJ,07104
256 Manley Alley,Des Moines,IA,50936
6 Algoma Drive,Prescott,AZ,86305
94313 Merry Trail,Apache Junction,AZ,85219
67 Butternut Alley,San Antonio,TX,78291
3 Cody Place,Long Beach,CA,90840
680 Transport Lane,Phoenix,AZ,85099
20 Riverside Avenue,Akron,OH,44315
1012 Victoria Avenue,Harrisburg,PA,17121
3391 Toban Plaza,Indianapolis,IN,46216
568 Colorado Terrace,Houston,TX,77085
562 Twin Pines Drive,West Palm Beach,FL,33416
311 Dayton Way,Terre Haute,IN,47812
8763 Kim Court,White Plains,NY,10606
76417 Emmet Avenue,Sacramento,CA,94207
4617 Hanover Road,Washington,DC,20220
6770 Swallow Street,Spokane,WA,99220
6887 Prairieview Avenue,Oklahoma City,OK,73109
14 Golf View Drive,Indianapolis,IN,46202
97 Reindahl Lane,Springfield,IL,62718
69340 Birchwood Point,Beaverton,OR,97075
44 Cardinal Drive,Phoenix,AZ,85072
867 Lunder Circle,Louisville,KY,40287
8 Myrtle Circle,Harrisburg,PA,17140
074 Anhalt Plaza,Modesto,CA,95354
4032 Green Ridge Alley,Minneapolis,MN,55487
79 La Follette Avenue,Memphis,TN,38168
93725 Brickson Park Alley,Omaha,NE,68105
55336 Sutherland Circle,Burbank,CA,91505
8 Service Junction,New Haven,CT,06510
0 Scoville Drive,Hamilton,OH,45020
86093 Aberg Hill,Phoenix,AZ,85077
366 Warner Street,Jacksonville,FL,32204
1 Wayridge Center,Syracuse,NY,13205
772 Jenna Road,Baltimore,MD,21275
506 Shelley Alley,Atlanta,GA,30301
5 Briar Crest Pass,Oklahoma City,OK,73167
6 Summit Avenue,Longview,TX,75605
763 Kingsford Place,Denver,CO,80241
7 Mandrake Point,Dayton,OH,45419
78 Bonner Plaza,Roanoke,VA,24004
4 Northwestern Drive,Atlanta,GA,30386
1890 Melvin Junction,Philadelphia,PA,19141
665 Gerald Circle,Minneapolis,MN,55417
4 Superior Point,Washington,DC,20088
067 Birchwood Way,Fresno,CA,93709
7 Pleasure Parkway,Aiken,SC,29805
43564 Reinke Lane,North Port,FL,34290
2 Utah Park,Shawnee Mission,KS,66286
23 Golf Course Park,Washington,DC,20244
6 Anzinger Alley,Portsmouth,NH,03804
5445 Columbus Park,Jacksonville,FL,32225
0418 Village Court,Austin,TX,78769
67 Melrose Drive,Washington,DC,20520
6791 Hoard Parkway,Amarillo,TX,79159
5549 Upham Terrace,Rochester,NY,14639
6 Oxford Place,Pittsburgh,PA,15286
29319 Nelson Circle,Irvine,CA,92612
112 Waubesa Terrace,Cedar Rapids,IA,52405
632 Mandrake Point,Torrance,CA,90505
9081 Gulseth Hill,Arvada,CO,80005
018 Clarendon Plaza,Fort Worth,TX,76105
458 High Crossing Point,Morgantown,WV,26505
032 Lotheville Court,Phoenix,AZ,85053
05 Wayridge Center,Washington,DC,20530
57 Westridge Terrace,Chandler,AZ,85246
365 East Parkway,Johnson City,TN,37605
1 Milwaukee Plaza,Arlington,TX,76096
5 Lillian Park,Milwaukee,WI,53220
4 Sugar Lane,Charlotte,NC,28278
0 Cody Street,Canton,OH,44720
1896 Union Pass,Washington,DC,20205
04342 Cascade Lane,Oklahoma City,OK,73119
711 Riverside Way,Whittier,CA,90610
59 Anniversary Street,Topeka,KS,66642
1 Arizona Drive,Fort Worth,TX,76105
005 Granby Trail,Petaluma,CA,94975
022 Troy Plaza,Metairie,LA,70005
77552 Nevada Plaza,Palm Bay,FL,32909
2535 Stoughton Circle,Akron,OH,44310
3 Hallows Hill,Amarillo,TX,79176
0657 Mesta Junction,Kalamazoo,MI,49048
3 Delaware Pass,Miami,FL,33175
83385 Pawling Crossing,Pittsburgh,PA,15255
28 Jay Place,Indianapolis,IN,46221
65 Onsgard Terrace,Indianapolis,IN,46221
89023 Redwing Plaza,New York City,NY,10090
9841 Sunfield Hill,Boston,MA,02109
6 Pennsylvania Center,Van Nuys,CA,91411
2570 Rockefeller Terrace,Cincinnati,OH,45218
70 Old Shore Circle,New York City,NY,10203
13612 Kingsford Alley,Metairie,LA,70005
84 Loftsgordon Pass,Dallas,TX,75358
361 Namekagon Court,Merrifield,VA,22119
93 Independence Terrace,Kent,WA,98042
9 Bluestem Place,Columbus,OH,43215
5471 Elmside Point,Madison,WI,53790
53 Melvin Road,Brooklyn,NY,11231
7 Westerfield Crossing,Columbus,OH,43284
8 Killdeer Pass,Jacksonville,FL,32204
7602 Almo Crossing,Topeka,KS,66606
5 Nelson Drive,Cincinnati,OH,45296
231 Magdeline Pass,Houston,TX,77240
620 Namekagon Pass,Jamaica,NY,11431
84490 Montana Terrace,Brooklyn,NY,11225
53564 Golden Leaf Junction,Boise,ID,83716
33 Aberg Park,Boulder,CO,80310
79635 Holmberg Terrace,Washington,DC,20370
8 Mesta Hill,Warren,MI,48092
6 Logan Alley,Baltimore,MD,21203
60 Kedzie Park,Pasadena,CA,91117
1486 Holmberg Lane,Orlando,FL,32835
1357 Continental Trail,Des Moines,IA,50936
99 Hansons Center,Chicago,IL,60609
64 Dixon Center,Akron,OH,44329
1511 Erie Place,Richmond,VA,23293
369 Sunnyside Drive,Largo,FL,34643
48508 Banding Hill,Columbia,SC,29220
29849 Myrtle Street,West Hartford,CT,06127
659 Pierstorff Lane,Jacksonville,FL,32220
4984 Mallory Place,Indianapolis,IN,46216
84 Prentice Trail,Miami,FL,33153
8 Utah Crossing,Pittsburgh,PA,15250
9174 Mitchell Place,Shreveport,LA,71161
2545 Corben Way,Melbourne,FL,32919
309 Moose Street,New York City,NY,10292
00026 Blaine Circle,El Paso,TX,88541
304 Larry Pass,Jackson,TN,38308
4 Stone Corner Court,Cedar Rapids,IA,52410
5 Gale Place,Nashville,TN,37240
61555 Clemons Trail,London,KY,40745
85 Golf Drive,New York City,NY,10165
6916 Towne Alley,San Jose,CA,95128
9 Monica Street,Oklahoma City,OK,73119
3 Banding Terrace,Albuquerque,NM,87195
3616 Rockefeller Circle,Grand Forks,ND,58207
09 Carey Point,Dayton,OH,45432
2005 Orin Trail,Burbank,CA,91520
10721 Morrow Lane,Mc Keesport,PA,15134
011 Hoffman Avenue,Mobile,AL,36628
1 Pennsylvania Drive,Vienna,VA,22184
0005 Aberg Parkway,Bloomington,IN,47405
8 Reindahl Parkway,Little Rock,AR,72215
53 Hansons Lane,Lincoln,NE,68505
39 Darwin Hill,Springfield,IL,62718
858 Elgar Avenue,Cleveland,OH,44177
3 Warner Street,Wilmington,DE,19897
1761 Emmet Terrace,Lynchburg,VA,24503
1 Scofield Terrace,Las Vegas,NV,89105
4 Calypso Avenue,El Paso,TX,79994
1 Ludington Lane,Santa Cruz,CA,95064
6 Eliot Pass,Clearwater,FL,34620
4 Melby Place,Chicago,IL,60652
772 Oak Valley Terrace,Portland,OR,97211
602 Golden Leaf Court,Tulsa,OK,74133
7867 Banding Street,Sacramento,CA,94291
7 Porter Junction,Charlotte,NC,28263
4212 Dennis Place,Newark,DE,19725
6 Colorado Crossing,Whittier,CA,90610
5617 Waubesa Place,Watertown,MA,02472
35 American Ash Park,Huntington,WV,25770
7 Loeprich Crossing,Aurora,IL,60505
02020 New Castle Pass,Las Vegas,NV,89166
60 Red Cloud Lane,Cincinnati,OH,45213
79722 Mockingbird Plaza,Durham,NC,27710
7 8th Street,New York City,NY,10009
5276 Manley Road,Erie,PA,16550
4 East Court,New York City,NY,10024
98 Division Road,Duluth,GA,30096
5 Manley Trail,Saint Louis,MO,63116
78713 Graedel Alley,Hartford,CT,06120
02321 Steensland Court,Valdosta,GA,31605
70 Fremont Park,Clearwater,FL,34629
20717 Thompson Way,Peoria,IL,61614
1 Northview Terrace,Cincinnati,OH,45238
12 Pine View Court,Augusta,GA,30911
86 Morning Plaza,Raleigh,NC,27621
4 Grim Court,Lubbock,TX,79405
490 Laurel Alley,Colorado Springs,CO,80995
35 Straubel Court,Las Vegas,NV,89193
77540 Reinke Junction,Metairie,LA,70005
5200 Hauk Way,Evansville,IN,47712
8 Bultman Hill,Huntsville,TX,77343
6279 Kinsman Way,Philadelphia,PA,19141
53230 Kennedy Plaza,Amarillo,TX,79105
00 Hooker Plaza,Springfield,IL,62723
79261 Duke Pass,Rochester,NY,14652
05 Eastwood Terrace,San Antonio,TX,78230
24 Pierstorff Center,New York City,NY,10090
783 Jenna Park,Orlando,FL,32885
00 Tony Parkway,Memphis,TN,38161
36273 Warbler Crossing,Baltimore,MD,21211
6034 Dapin Drive,Wichita,KS,67220
3645 Mayfield Parkway,Colorado Springs,CO,80930
5 Pankratz Terrace,Lake Worth,FL,33467
06497 Kenwood Plaza,San Antonio,TX,78230
3 Mockingbird Plaza,Staten Island,NY,10305
880 Center Hill,Memphis,TN,38150
36 Meadow Ridge Junction,Minneapolis,MN,55428
50 Stoughton Court,Fresno,CA,93709
63 Mayfield Lane,Baltimore,MD,21282
39 Westend Alley,Scranton,PA,18505
8869 Darwin Court,Pasadena,CA,91103
3911 Park Meadow Hill,Rochester,NY,14624
600 Menomonie Plaza,Charlotte,NC,28210
4999 Blackbird Trail,Punta Gorda,FL,33982
51 Schlimgen Street,Syracuse,NY,13251
00 American Ash Place,Lynchburg,VA,24515
742 Morningstar Alley,Lynchburg,VA,24503
36 Calypso Way,Springfield,VA,22156
66221 Rowland Street,Young America,MN,55573
48856 Thackeray Park,Oklahoma City,OK,73157
7804 Maryland Pass,Milwaukee,WI,53225
74 Hanover Park,Trenton,NJ,08619
45 Hazelcrest Terrace,San Francisco,CA,94116
604 Summit Trail,Chico,CA,95973
35 Fieldstone Pass,Kansas City,MO,64101
4 Fremont Circle,Portland,OR,97240
443 Milwaukee Street,Fairbanks,AK,99790
92045 Banding Place,Charleston,WV,25331
38 Mifflin Parkway,Chicago,IL,60697
3 Monument Place,Denver,CO,80262
154 Brickson Park Street,Oklahoma City,OK,73109
617 Lillian Junction,Fayetteville,NC,28305
8880 Forster Place,Fresno,CA,93721
19 Esch Trail,Baton Rouge,LA,70883
8 Southridge Hill,Saint Paul,MN,55108
51766 Victoria Hill,Atlanta,GA,30323
31 Hoard Trail,Wilmington,DE,19897
9 Trailsway Way,Corpus Christi,TX,78475
42 Manitowish Drive,Paterson,NJ,07505
80076 Hovde Point,Long Beach,CA,90831
4 Transport Trail,Minneapolis,MN,55470
45398 Glendale Place,Staten Island,NY,10305
900 Southridge Pass,San Antonio,TX,78278
7634 Buell Parkway,Chicago,IL,60652
42914 Truax Lane,Pueblo,CO,81005
90 Helena Circle,Charlotte,NC,28289
96 Sunnyside Hill,San Antonio,TX,78255
12 Paget Plaza,Austin,TX,78744
11427 Merrick Court,New York City,NY,10125
9 Havey Plaza,Plano,TX,75074
3 Columbus Pass,South Bend,IN,46614
66494 Cambridge Trail,Shreveport,LA,71137
27 Old Shore Junction,Honolulu,HI,96805
834 Loeprich Plaza,Kansas City,MO,64101
66267 Morrow Plaza,Panama City,FL,32405
1 Fremont Court,San Jose,CA,95108
27 Oriole Junction,Levittown,PA,19058
0022 Pleasure Crossing,Colorado Springs,CO,80935
915 Burning Wood Hill,Paterson,NJ,07544
089 Tennyson Junction,Tampa,FL,33694
2347 Declaration Junction,New York City,NY,10249
03643 Clyde Gallagher Drive,New Orleans,LA,70142
91 Heath Avenue,Irvine,CA,92710
88436 Cascade Park,Terre Haute,IN,47812
753 Grasskamp Junction,Fort Wayne,IN,46814
1609 Killdeer Parkway,Pensacola,FL,32590
8 Browning Center,San Diego,CA,92165
1817 4th Terrace,Washington,DC,20220
4468 Ramsey Point,Denver,CO,80255
8140 Park Meadow Parkway,Saint Louis,MO,63196
50045 Kings Street,Charlotte,NC,28256
1465 Dunning Hill,Baltimore,MD,21290
854 East Court,Fort Wayne,IN,46852
02 Mendota Pass,Knoxville,TN,37914
86365 Vernon Parkway,Philadelphia,PA,19172
72875 Trailsway Plaza,Miami Beach,FL,33141
27 Welch Road,Boston,MA,02203
47385 Sloan Plaza,Riverside,CA,92505
619 Towne Pass,Lancaster,PA,17605
4117 Anzinger Plaza,Saint Petersburg,FL,33742
17 Anzinger Plaza,Spokane,WA,99252
24472 Dennis Pass,Kansas City,MO,64125
3407 Bay Circle,Sacramento,CA,95813
7087 Reinke Street,Trenton,NJ,08695
63 Nevada Court,Boulder,CO,80328
94 Sutteridge Place,Stockton,CA,95210
2781 Merrick Way,Brooklyn,NY,11247
1 Talisman Drive,Lexington,KY,40581
17569 Mockingbird Alley,Boston,MA,02109
65480 Sycamore Crossing,Clearwater,FL,33758
59 Kennedy Street,Ocala,FL,34474
9409 Maywood Alley,Cape Coral,FL,33915
76 Troy Plaza,Shreveport,LA,71161
723 Anniversary Road,Aurora,IL,60505
1595 Hooker Street,New York City,NY,10270
5122 Eastwood Place,Houston,TX,77090
1006 Garrison Avenue,Gainesville,FL,32627
7004 Stephen Circle,Tampa,FL,33647
31373 Hanson Pass,Fort Worth,TX,76178
852 Wayridge Lane,New Haven,CT,06505
14269 Melrose Circle,Scottsdale,AZ,85255
778 Maywood Pass,Bronx,NY,10474
50 Scofield Point,Atlanta,GA,30301
2335 Quincy Junction,Decatur,GA,30033
47988 Anzinger Plaza,Schenectady,NY,12305
2 Golf View Avenue,Honolulu,HI,96805
39847 Heath Center,Lexington,KY,40524
71 Ludington Parkway,Austin,TX,78715
949 Westport Park,Syracuse,NY,13217
48264 Iowa Junction,Oklahoma City,OK,73173
61633 Marquette Parkway,Carson City,NV,89706
160 Oak Valley Place,Sacramento,CA,94230
8859 Morningstar Drive,Mobile,AL,36610
70301 Porter Plaza,Boulder,CO,80328
2 Superior Way,Alexandria,LA,71307
0139 Shelley Parkway,Huntington,WV,25705
75683 Oakridge Park,Memphis,TN,38143
9 Sloan Circle,Providence,RI,02905
588 Blue Bill Park Terrace,Washington,DC,20566
4344 Birchwood Center,Houston,TX,77266
44 Tomscot Hill,Boynton Beach,FL,33436
30 Forest Dale Way,San Diego,CA,92176
6353 1st Road,Omaha,NE,68117
83 Service Road,Portland,OR,97286
30 Sheridan Plaza,Miami,FL,33158
857 Clemons Place,Portland,OR,97216
67 Fisk Trail,Schenectady,NY,12305
2083 Burrows Street,Kansas City,KS,66112
10853 Elka Way,Longview,TX,75605
133 Calypso Terrace,Miami,FL,33147
863 Morning Hill,Kansas City,MO,64149
18 Fuller Pass,Daytona Beach,FL,32123
7616 Buena Vista Crossing,Yakima,WA,98907
94739 Veith Park,Austin,TX,78749
9707 Merrick Avenue,Newark,DE,19725
0 Anthes Street,Wilmington,NC,28410
4 Orin Road,Albuquerque,NM,87115
7 Harbort Circle,New York City,NY,10029
7901 Lawn Junction,Tallahassee,FL,32309
897 Lighthouse Bay Parkway,Philadelphia,PA,19115
90760 Northfield Hill,Montpelier,VT,05609
197 Wayridge Plaza,Washington,DC,20557
41375 Hermina Street,Springfield,IL,62764
942 Surrey Trail,San Bernardino,CA,92410
758 Hagan Hill,Dallas,TX,75251
4019 Kipling Drive,Detroit,MI,48232
5 Grim Pass,Washington,DC,20244
3 Ruskin Lane,Manassas,VA,22111
83075 Helena Pass,Birmingham,AL,35231
6 Valley Edge Parkway,Portsmouth,NH,00214
2601 Hudson Center,Oakland,CA,94660
91 Canary Center,Chandler,AZ,85246
0 Beilfuss Parkway,Roanoke,VA,24034
48813 Hintze Pass,Amarillo,TX,79159
544 Larry Avenue,Cleveland,OH,44197
81 Blue Bill Park Junction,Bradenton,FL,34205
6570 Crowley Parkway,Washington,DC,20580
683 Loftsgordon Circle,Indianapolis,IN,46221
97297 Valley Edge Pass,Cincinnati,OH,45243
69805 Walton Parkway,Charlotte,NC,28220
12515 Kinsman Way,Cleveland,OH,44125
6881 Sugar Way,Montgomery,AL,36195
4310 Rieder Trail,Atlanta,GA,30306
39 Northport Drive,Dayton,OH,45414
6 Kings Avenue,Grand Junction,CO,81505
06066 Loftsgordon Junction,Irvine,CA,92612
9006 Kennedy Parkway,Raleigh,NC,27690
695 Lukken Alley,San Jose,CA,95160
62 Donald Court,Montgomery,AL,36195
19434 Forster Hill,El Paso,TX,79968
6 Loomis Drive,Kalamazoo,MI,49048
20 Cardinal Junction,Erie,PA,16550
674 Elmside Street,Southfield,MI,48076
73727 Hauk Crossing,New York City,NY,10203
418 Esker Pass,Madison,WI,53779
36 Calypso Pass,Austin,TX,78703
8 Veith Place,Birmingham,AL,35290
144 Thompson Street,Cedar Rapids,IA,52405
3 Granby Court,Los Angeles,CA,90005
4787 Marquette Terrace,New York City,NY,10024
4903 Evergreen Pass,Lubbock,TX,79491
18 Shelley Avenue,Norman,OK,73071
89 Kropf Plaza,Shawnee Mission,KS,66225
9 Utah Road,Cincinnati,OH,45213
65998 Blaine Court,Orlando,FL,32835
7604 John Wall Lane,New Orleans,LA,70116
39956 Dawn Circle,Prescott,AZ,86305
4508 Pond Hill,El Paso,TX,88525
35018 Autumn Leaf Place,Baltimore,MD,21211
782 Maple Way,Orlando,FL,32854
067 Union Trail,Burbank,CA,91505
66 Lillian Way,Long Beach,CA,90810
9500 Havey Junction,Corpus Christi,TX,78426
02 Mendota Crossing,Roanoke,VA,24009
48 Carberry Terrace,Houston,TX,77250
836 Montana Alley,Las Vegas,NV,89193
6 Commercial Road,Salem,OR,97306
04121 Judy Crossing,Washington,DC,20268
12087 Chinook Trail,Atlanta,GA,31106
8171 Donald Drive,Omaha,NE,68105
63 Dorton Park,Washington,DC,20260
2282 Thierer Center,Washington,DC,20319
81 Harper Hill,Rochester,NY,14652
0296 Portage Center,Inglewood,CA,90310
7447 Welch Avenue,New York City,NY,10090
1 Laurel Street,New York City,NY,10099
72 American Plaza,Indianapolis,IN,46239
5322 Gale Avenue,Huntington,WV,25716
8 Chive Terrace,Columbus,GA,31914
6 Atwood Circle,Durham,NC,27705
38983 Reindahl Road,Albany,NY,12210
6254 Dunning Hill,Los Angeles,CA,90030
6 Butterfield Hill,Lancaster,CA,93584
89 Starling Center,Bronx,NY,10464
9 Morningstar Terrace,Orlando,FL,32854
0961 Sloan Park,Orlando,FL,32859
70135 Carberry Circle,Lake Charles,LA,70607
4 Helena Circle,Florence,SC,29505
9 Armistice Park,Baltimore,MD,21229
944 Kropf Court,Young America,MN,55564
12 Alpine Terrace,Greensboro,NC,27499
22 Beilfuss Junction,Provo,UT,84605
93 Redwing Court,Milwaukee,WI,53277
81 Schiller Crossing,Fort Myers,FL,33913
22 Leroy Point,Kansas City,MO,64149
737 Sachs Hill,Sacramento,CA,95813
52040 Buena Vista Trail,Portland,OR,97286
38973 School Drive,Dulles,VA,20189
31382 Hoepker Point,Rochester,NY,14614
76 Hoepker Pass,San Antonio,TX,78285
800 Sullivan Center,Columbia,MO,65218
65847 Westport Hill,Wichita,KS,67210
09 Union Point,Garland,TX,75049
19 Darwin Street,Waltham,MA,02453
3 Service Street,Yonkers,NY,10705
152 South Avenue,Mansfield,OH,44905
2559 Lighthouse Bay Trail,South Bend,IN,46634
583 Victoria Pass,Monticello,MN,55585
17 Carpenter Street,Saint Louis,MO,63196
2004 Canary Plaza,Montpelier,VT,05609
12836 Ilene Circle,Syracuse,NY,13224
06925 Carey Way,Washington,DC,20420
91264 Waubesa Drive,Evansville,IN,47737
69 Warrior Park,Albany,NY,12205
007 Heath Park,Salt Lake City,UT,84170
9 Harper Avenue,Columbia,SC,29208
04 Prairieview Court,Clearwater,FL,33758
9195 Aberg Junction,Hollywood,FL,33028
572 Roth Parkway,Canton,OH,44710
46 Magdeline Court,Minneapolis,MN,55470
450 Utah Road,Los Angeles,CA,90087
21 Dixon Alley,Columbus,OH,43204
687 Dottie Lane,Wilmington,DE,19886
30972 Spohn Pass,Peoria,IL,61635
92 Oak Avenue,Augusta,GA,30911
950 Michigan Terrace,Jamaica,NY,11431
339 Waubesa Road,Lexington,KY,40505
09 Oriole Trail,Albuquerque,NM,87110
9926 Grover Drive,Rochester,NY,14646
49 Talmadge Park,San Antonio,TX,78230
64269 Columbus Junction,Louisville,KY,40205
44804 Charing Cross Court,Austin,TX,78759
17216 Trailsway Park,Valdosta,GA,31605
76532 Ridgeview Road,New York City,NY,10275
